{"fetched_at":"2026-07-10T07:58:52.118Z","source":"https://celestrak.org/NORAD/elements/gp.php?NAME=BRO&FORMAT=JSON","constellation":"unseenlabs","records":[{"OBJECT_NAME":"BRO-1","OBJECT_ID":"2019-054A","EPOCH":"2026-07-09T14:18:05.301216","CLASSIFICATION_TYPE":"U","MEAN_MOTION":16.07747697,"ECCENTRICITY":0.000846,"INCLINATION":44.9836,"RA_OF_ASC_NODE":153.5334,"ARG_OF_PERICENTER":139.885,"MEAN_ANOMALY":220.269,"EPHEMERIS_TYPE":0,"NORAD_CAT_ID":44495,"ELEMENT_SET_NO":999,"REV_AT_EPOCH":38332,"BSTAR":0.00081259,"MEAN_MOTION_DOT":0.006897,"MEAN_MOTION_DDOT":0.00025125},{"OBJECT_NAME":"BRO-5","OBJECT_ID":"2022-002CF","EPOCH":"2026-07-09T19:27:57.076128","CLASSIFICATION_TYPE":"U","MEAN_MOTION":15.4866171,"ECCENTRICITY":0.000482,"INCLINATION":97.2989,"RA_OF_ASC_NODE":264.6984,"ARG_OF_PERICENTER":224.0023,"MEAN_ANOMALY":136.0845,"EPHEMERIS_TYPE":0,"NORAD_CAT_ID":51061,"ELEMENT_SET_NO":999,"REV_AT_EPOCH":24975,"BSTAR":0.00046125,"MEAN_MOTION_DOT":0.00024625,"MEAN_MOTION_DDOT":0},{"OBJECT_NAME":"BRO-6","OBJECT_ID":"2022-047AE","EPOCH":"2026-07-09T20:13:21.186048","CLASSIFICATION_TYPE":"U","MEAN_MOTION":15.52257261,"ECCENTRICITY":0.0003124,"INCLINATION":97.3389,"RA_OF_ASC_NODE":282.358,"ARG_OF_PERICENTER":340.8807,"MEAN_ANOMALY":19.2328,"EPHEMERIS_TYPE":0,"NORAD_CAT_ID":52422,"ELEMENT_SET_NO":999,"REV_AT_EPOCH":23466,"BSTAR":0.0005296,"MEAN_MOTION_DOT":0.00032144,"MEAN_MOTION_DDOT":0},{"OBJECT_NAME":"BRO-8","OBJECT_ID":"2023-001C","EPOCH":"2026-07-09T20:10:51.729600","CLASSIFICATION_TYPE":"U","MEAN_MOTION":15.50509671,"ECCENTRICITY":0.0005454,"INCLINATION":97.3195,"RA_OF_ASC_NODE":256.3717,"ARG_OF_PERICENTER":58.1878,"MEAN_ANOMALY":301.9905,"EPHEMERIS_TYPE":0,"NORAD_CAT_ID":55011,"ELEMENT_SET_NO":999,"REV_AT_EPOCH":19571,"BSTAR":0.00046513,"MEAN_MOTION_DOT":0.00026509,"MEAN_MOTION_DDOT":0},{"OBJECT_NAME":"BRO-11","OBJECT_ID":"2023-174J","EPOCH":"2026-07-09T20:21:29.064384","CLASSIFICATION_TYPE":"U","MEAN_MOTION":15.2756161,"ECCENTRICITY":0.0011795,"INCLINATION":97.3899,"RA_OF_ASC_NODE":267.4861,"ARG_OF_PERICENTER":123.9063,"MEAN_ANOMALY":236.33,"EPHEMERIS_TYPE":0,"NORAD_CAT_ID":58264,"ELEMENT_SET_NO":999,"REV_AT_EPOCH":14821,"BSTAR":0.00011217,"MEAN_MOTION_DOT":0.00002954,"MEAN_MOTION_DDOT":0},{"OBJECT_NAME":"BRO-13","OBJECT_ID":"2024-043K","EPOCH":"2026-07-09T06:56:51.173952","CLASSIFICATION_TYPE":"U","MEAN_MOTION":14.96641551,"ECCENTRICITY":0.00077192,"INCLINATION":97.8516,"RA_OF_ASC_NODE":321.3816,"ARG_OF_PERICENTER":286.4245,"MEAN_ANOMALY":73.6127,"EPHEMERIS_TYPE":0,"NORAD_CAT_ID":59107,"ELEMENT_SET_NO":999,"REV_AT_EPOCH":12792,"BSTAR":0.00006925728,"MEAN_MOTION_DOT":0.0000073,"MEAN_MOTION_DDOT":0},{"OBJECT_NAME":"BRO-12","OBJECT_ID":"2024-043L","EPOCH":"2026-07-09T19:36:08.152128","CLASSIFICATION_TYPE":"U","MEAN_MOTION":14.96887578,"ECCENTRICITY":0.0007084,"INCLINATION":97.8506,"RA_OF_ASC_NODE":322.0789,"ARG_OF_PERICENTER":279.2771,"MEAN_ANOMALY":80.7649,"EPHEMERIS_TYPE":0,"NORAD_CAT_ID":59108,"ELEMENT_SET_NO":999,"REV_AT_EPOCH":12802,"BSTAR":0.000041817,"MEAN_MOTION_DOT":0.0000042,"MEAN_MOTION_DDOT":0},{"OBJECT_NAME":"BRO-14","OBJECT_ID":"2024-149CM","EPOCH":"2026-07-08T11:05:46.550112","CLASSIFICATION_TYPE":"U","MEAN_MOTION":14.96225728,"ECCENTRICITY":0.00073282,"INCLINATION":97.6862,"RA_OF_ASC_NODE":264.8578,"ARG_OF_PERICENTER":36.5112,"MEAN_ANOMALY":323.6608,"EPHEMERIS_TYPE":0,"NORAD_CAT_ID":60551,"ELEMENT_SET_NO":999,"REV_AT_EPOCH":10317,"BSTAR":0.000049245054,"MEAN_MOTION_DOT":0.00000498,"MEAN_MOTION_DDOT":0},{"OBJECT_NAME":"BRO-15","OBJECT_ID":"2024-149CP","EPOCH":"2026-07-08T18:42:17.548992","CLASSIFICATION_TYPE":"U","MEAN_MOTION":14.96221261,"ECCENTRICITY":0.00085664,"INCLINATION":97.6797,"RA_OF_ASC_NODE":264.7511,"ARG_OF_PERICENTER":26.1337,"MEAN_ANOMALY":334.0315,"EPHEMERIS_TYPE":0,"NORAD_CAT_ID":60553,"ELEMENT_SET_NO":999,"REV_AT_EPOCH":10323,"BSTAR":0.000039270068,"MEAN_MOTION_DOT":0.00000386,"MEAN_MOTION_DDOT":0},{"OBJECT_NAME":"BRO-16","OBJECT_ID":"2025-009AX","EPOCH":"2026-07-09T00:12:28.275840","CLASSIFICATION_TYPE":"U","MEAN_MOTION":15.24100007,"ECCENTRICITY":0.00015349,"INCLINATION":97.4051,"RA_OF_ASC_NODE":270.2256,"ARG_OF_PERICENTER":167.6946,"MEAN_ANOMALY":192.4329,"EPHEMERIS_TYPE":0,"NORAD_CAT_ID":62654,"ELEMENT_SET_NO":999,"REV_AT_EPOCH":8212,"BSTAR":0.000091375753,"MEAN_MOTION_DOT":0.00002148,"MEAN_MOTION_DDOT":0},{"OBJECT_NAME":"BRO-18","OBJECT_ID":"2025-135Y","EPOCH":"2026-07-09T19:13:31.114848","CLASSIFICATION_TYPE":"U","MEAN_MOTION":15.22148294,"ECCENTRICITY":0.000228,"INCLINATION":97.4643,"RA_OF_ASC_NODE":305.6588,"ARG_OF_PERICENTER":122.5233,"MEAN_ANOMALY":237.6224,"EPHEMERIS_TYPE":0,"NORAD_CAT_ID":64550,"ELEMENT_SET_NO":999,"REV_AT_EPOCH":5831,"BSTAR":0.00018479,"MEAN_MOTION_DOT":0.00004167,"MEAN_MOTION_DDOT":0},{"OBJECT_NAME":"BRO-17","OBJECT_ID":"2025-276G","EPOCH":"2026-07-08T17:40:55.479936","CLASSIFICATION_TYPE":"U","MEAN_MOTION":15.18131277,"ECCENTRICITY":0.00051111,"INCLINATION":97.4183,"RA_OF_ASC_NODE":262.43,"ARG_OF_PERICENTER":289.122,"MEAN_ANOMALY":70.946,"EPHEMERIS_TYPE":0,"NORAD_CAT_ID":66672,"ELEMENT_SET_NO":999,"REV_AT_EPOCH":3366,"BSTAR":0.00010800785,"MEAN_MOTION_DOT":0.00002137,"MEAN_MOTION_DDOT":0},{"OBJECT_NAME":"BRO-20","OBJECT_ID":"2025-276J","EPOCH":"2026-07-08T15:32:31.654176","CLASSIFICATION_TYPE":"U","MEAN_MOTION":15.1830252,"ECCENTRICITY":0.00047607,"INCLINATION":97.4162,"RA_OF_ASC_NODE":262.3311,"ARG_OF_PERICENTER":294.048,"MEAN_ANOMALY":66.0256,"EPHEMERIS_TYPE":0,"NORAD_CAT_ID":66674,"ELEMENT_SET_NO":999,"REV_AT_EPOCH":3365,"BSTAR":0.00011095844,"MEAN_MOTION_DOT":0.00002209,"MEAN_MOTION_DDOT":0},{"OBJECT_NAME":"BRO-19","OBJECT_ID":"2026-067G","EPOCH":"2026-07-09T02:51:30.906144","CLASSIFICATION_TYPE":"U","MEAN_MOTION":15.18963668,"ECCENTRICITY":0.00022936,"INCLINATION":97.4483,"RA_OF_ASC_NODE":148.2633,"ARG_OF_PERICENTER":113.7746,"MEAN_ANOMALY":246.373,"EPHEMERIS_TYPE":0,"NORAD_CAT_ID":68422,"ELEMENT_SET_NO":999,"REV_AT_EPOCH":1527,"BSTAR":0.00012814422,"MEAN_MOTION_DOT":0.0000261,"MEAN_MOTION_DDOT":0},{"OBJECT_NAME":"BRO-21","OBJECT_ID":"2026-100AD","EPOCH":"2026-07-08T16:42:47.564640","CLASSIFICATION_TYPE":"U","MEAN_MOTION":15.21599743,"ECCENTRICITY":0.00075385,"INCLINATION":97.402,"RA_OF_ASC_NODE":87.2384,"ARG_OF_PERICENTER":353.3605,"MEAN_ANOMALY":6.753,"EPHEMERIS_TYPE":0,"NORAD_CAT_ID":69007,"ELEMENT_SET_NO":999,"REV_AT_EPOCH":1007,"BSTAR":0.000074555828,"MEAN_MOTION_DOT":0.00001614,"MEAN_MOTION_DDOT":0},{"OBJECT_NAME":"BRO-22","OBJECT_ID":"2026-132C","EPOCH":"2026-07-09T13:40:53.743008","CLASSIFICATION_TYPE":"U","MEAN_MOTION":14.9979631,"ECCENTRICITY":0.0015951,"INCLINATION":97.6833,"RA_OF_ASC_NODE":253.9635,"ARG_OF_PERICENTER":201.2436,"MEAN_ANOMALY":158.8127,"EPHEMERIS_TYPE":0,"NORAD_CAT_ID":69504,"ELEMENT_SET_NO":999,"REV_AT_EPOCH":413,"BSTAR":0.00006648,"MEAN_MOTION_DOT":0.00000764,"MEAN_MOTION_DDOT":0}]}
