BRO-1                   
1 44495U 19054A   26190.59589469  .00689700  25125-3  81259-3 0  9994
2 44495  44.9836 153.5334 0008460 139.8850 220.2690 16.07747697383322
BRO-5                   
1 51061U 22002CF  26190.81107727  .00024625  00000+0  46125-3 0  9999
2 51061  97.2989 264.6984 0004820 224.0023 136.0845 15.48661710249758
BRO-6                   
1 52422U 22047AE  26190.84260632  .00032144  00000+0  52960-3 0  9997
2 52422  97.3389 282.3580 0003124 340.8807  19.2328 15.52257261234666
BRO-8                   
1 55011U 23001C   26190.84087650  .00026509  00000+0  46513-3 0  9997
2 55011  97.3195 256.3717 0005454  58.1878 301.9905 15.50509671195713
BRO-11                  
1 58264U 23174J   26190.84825306  .00002954  00000+0  11217-3 0  9990
2 58264  97.3899 267.4861 0011795 123.9063 236.3300 15.27561610148210
BRO-13                  
1 59107U 24043K   26190.28948118  .00000730  00000+0  69257-4 0  9996
2 59107  97.8516 321.3816 0007719 286.4245  73.6127 14.96641551127928
BRO-12                  
1 59108U 24043L   26190.81676102  .00000420  00000+0  41817-4 0  9995
2 59108  97.8506 322.0789 0007084 279.2771  80.7649 14.96887578128025
BRO-14                  
1 60551U 24149CM  26189.46234433  .00000498  00000+0  49245-4 0  9990
2 60551  97.6862 264.8578 0007328  36.5112 323.6608 14.96225728103171
BRO-15                  
1 60553U 24149CP  26189.77936978  .00000386  00000+0  39270-4 0  9992
2 60553  97.6797 264.7511 0008566  26.1337 334.0315 14.96221261103231
BRO-16                  
1 62654U 25009AX  26190.00866060  .00002148  00000+0  91376-4 0  9997
2 62654  97.4051 270.2256 0001534 167.6946 192.4329 15.24100007 82120
BRO-18                  
1 64550U 25135Y   26190.80105457  .00004167  00000+0  18479-3 0  9993
2 64550  97.4643 305.6588 0002280 122.5233 237.6224 15.22148294 58311
BRO-17                  
1 66672U 25276G   26189.73675324  .00002137  00000+0  10801-3 0  9997
2 66672  97.4183 262.4300 0005111 289.1220  70.9460 15.18131277 33660
BRO-20                  
1 66674U 25276J   26189.64758859  .00002209  00000+0  11096-3 0  9991
2 66674  97.4162 262.3311 0004760 294.0480  66.0256 15.18302520 33651
BRO-19                  
1 68422U 26067G   26190.11910771  .00002610  00000+0  12814-3 0  9995
2 68422  97.4483 148.2633 0002293 113.7746 246.3730 15.18963668 15274
BRO-21                  
1 69007U 26100AD  26189.69638385  .00001614  00000+0  74556-4 0  9997
2 69007  97.4020  87.2384 0007538 353.3605   6.7530 15.21599743 10071
BRO-22                  
1 69504U 26132C   26190.57006647  .00000764  00000+0  66480-4 0  9995
2 69504  97.6833 253.9635 0015951 201.2436 158.8127 14.99796310  4133
